start=new Date('2023-04-29T00:00:00.000Z').valueOf();
sats=[{"COUNTRY_CODE":"US","ECCENTRICITY":"0.00037160","MEAN_MOTION_DDOT":"0.0000000000000","MEAN_MOTION_DOT":"0.00064986","FILE":"3895783","CENTER_NAME":"EARTH","RA_OF_ASC_NODE":"284.4066","OBJECT_NAME":"STARLINK-30061","LAUNCH_DATE":"2023-02-27","EPHEMERIS_TYPE":"0","REV_AT_EPOCH":"1041","ELEMENT_SET_NO":"999","PERIOD":"91.592","EPOCH":"2023-04-28T18:17:56.536224","OBJECT_TYPE":"PAYLOAD","NORAD_CAT_ID":"55698","MEAN_ELEMENT_THEORY":"SGP4","RCS_SIZE":"LARGE","SITE":"AFETR","TLE_LINE1":"1 55698U 23026D   23118.76245991  .00064986  00000-0  47804-3 0  9993","ARG_OF_PERICENTER":"320.8588","OBJECT_ID":"2023-026D","CLASSIFICATION_TYPE":"U","INCLINATION":"42.9986","REF_FRAME":"TEME","TLE_LINE2":"2 55698  42.9986 284.4066 0003716 320.8588  39.2011 15.72181628 10417","PERIAPSIS":"350.164","SEMIMAJOR_AXIS":"6730.800","MEAN_MOTION":"15.72181628","GP_ID":"230889877","MEAN_ANOMALY":"39.2011","DECAY_DATE":null,"APOAPSIS":"355.166","TIME_SYSTEM":"UTC","BSTAR":"0.00047804000000"},{"MEAN_MOTION_DDOT":"0.0000000000000","ECCENTRICITY":"0.00019600","COUNTRY_CODE":"US","OBJECT_NAME":"STARLINK-30055","LAUNCH_DATE":"2023-02-27","CENTER_NAME":"EARTH","RA_OF_ASC_NODE":"284.0025","MEAN_MOTION_DOT":"0.00003519","FILE":"3896001","PERIOD":"91.640","REV_AT_EPOCH":"1042","ELEMENT_SET_NO":"999","EPHEMERIS_TYPE":"0","RCS_SIZE":"LARGE","MEAN_ELEMENT_THEORY":"SGP4","NORAD_CAT_ID":"55699","EPOCH":"2023-04-28T19:45:06.376608","OBJECT_TYPE":"PAYLOAD","OBJECT_ID":"2023-026E","TLE_LINE1":"1 55699U 23026E   23118.82299047  .00003519  00000-0  30261-4 0  9997","ARG_OF_PERICENTER":"287.6435","SITE":"AFETR","MEAN_MOTION":"15.71365569","SEMIMAJOR_AXIS":"6733.130","INCLINATION":"42.9999","TLE_LINE2":"2 55699  42.9999 284.0025 0001960 287.6435  72.4219 15.71365569 10420","PERIAPSIS":"353.676","REF_FRAME":"TEME","CLASSIFICATION_TYPE":"U","MEAN_ANOMALY":"72.4219","GP_ID":"230895431","BSTAR":"0.00003026100000","TIME_SYSTEM":"UTC","APOAPSIS":"356.315","DECAY_DATE":null},{"NORAD_CAT_ID":"55700","EPOCH":"2023-04-28T15:23:37.889664","OBJECT_TYPE":"PAYLOAD","RCS_SIZE":"LARGE","MEAN_ELEMENT_THEORY":"SGP4","REV_AT_EPOCH":"1039","ELEMENT_SET_NO":"999","EPHEMERIS_TYPE":"0","PERIOD":"91.641","CENTER_NAME":"EARTH","RA_OF_ASC_NODE":"285.2328","MEAN_MOTION_DOT":"0.00000503","FILE":"3896001","OBJECT_NAME":"STARLINK-30064","LAUNCH_DATE":"2023-02-27","COUNTRY_CODE":"US","MEAN_MOTION_DDOT":"0.0000000000000","ECCENTRICITY":"0.00018880","TIME_SYSTEM":"UTC","APOAPSIS":"356.292","DECAY_DATE":null,"BSTAR":"0.00000728350000","GP_ID":"230895425","MEAN_ANOMALY":"92.1483","INCLINATION":"42.9993","PERIAPSIS":"353.750","TLE_LINE2":"2 55700  42.9993 285.2328 0001888 267.9169  92.1483 15.71356648 10396","REF_FRAME":"TEME","CLASSIFICATION_TYPE":"U","MEAN_MOTION":"15.71356648","SEMIMAJOR_AXIS":"6733.156","SITE":"AFETR","OBJECT_ID":"2023-026F","TLE_LINE1":"1 55700U 23026F   23118.64141076  .00000503  00000-0  72835-5 0  9992","ARG_OF_PERICENTER":"267.9169"},{"BSTAR":"-0.00000265260000","TIME_SYSTEM":"UTC","DECAY_DATE":null,"APOAPSIS":"356.208","MEAN_ANOMALY":"80.0749","GP_ID":"230888783","MEAN_MOTION":"15.71346609","SEMIMAJOR_AXIS":"6733.184","INCLINATION":"43.0006","TLE_LINE2":"2 55701  43.0006 285.9741 0001720 279.9925  80.0749 15.71346609 10542","PERIAPSIS":"353.891","REF_FRAME":"TEME","CLASSIFICATION_TYPE":"U","OBJECT_ID":"2023-026G","TLE_LINE1":"1 55701U 23026G   23118.51186613 -.00000800  00000-0 -26526-5 0  9993","ARG_OF_PERICENTER":"279.9925","SITE":"AFETR","RCS_SIZE":"LARGE","MEAN_ELEMENT_THEORY":"SGP4","NORAD_CAT_ID":"55701","EPOCH":"2023-04-28T12:17:05.233632","OBJECT_TYPE":"PAYLOAD","PERIOD":"91.641","REV_AT_EPOCH":"1054","ELEMENT_SET_NO":"999","EPHEMERIS_TYPE":"0","OBJECT_NAME":"STARLINK-30065","LAUNCH_DATE":"2023-02-27","CENTER_NAME":"EARTH","RA_OF_ASC_NODE":"285.9741","FILE":"3895770","MEAN_MOTION_DOT":"-0.00000800","MEAN_MOTION_DDOT":"0.0000000000000","ECCENTRICITY":"0.00017200","COUNTRY_CODE":"US"},{"CLASSIFICATION_TYPE":"U","INCLINATION":"43.0005","TLE_LINE2":"2 55702  43.0005 290.4881 0001936 284.5147  75.5490 15.29269316 10358","REF_FRAME":"TEME","PERIAPSIS":"476.670","SEMIMAJOR_AXIS":"6856.132","MEAN_MOTION":"15.29269316","SITE":"AFETR","TLE_LINE1":"1 55702U 23026H   23118.86415132 -.00002044  00000-0 -61313-4 0  9997","ARG_OF_PERICENTER":"284.5147","OBJECT_ID":"2023-026H","APOAPSIS":"479.325","DECAY_DATE":null,"TIME_SYSTEM":"UTC","BSTAR":"-0.00006131300000","GP_ID":"230895437","MEAN_ANOMALY":"75.5490","MEAN_MOTION_DOT":"-0.00002044","FILE":"3896001","CENTER_NAME":"EARTH","RA_OF_ASC_NODE":"290.4881","OBJECT_NAME":"STARLINK-30042","LAUNCH_DATE":"2023-02-27","COUNTRY_CODE":"US","ECCENTRICITY":"0.00019360","MEAN_MOTION_DDOT":"0.0000000000000","EPOCH":"2023-04-28T20:44:22.674048","OBJECT_TYPE":"PAYLOAD","NORAD_CAT_ID":"55702","MEAN_ELEMENT_THEORY":"SGP4","RCS_SIZE":"LARGE","EPHEMERIS_TYPE":"0","REV_AT_EPOCH":"1035","ELEMENT_SET_NO":"999","PERIOD":"94.163"},{"DECAY_DATE":null,"APOAPSIS":"341.809","TIME_SYSTEM":"UTC","BSTAR":"0.00145140000000","GP_ID":"230895296","MEAN_ANOMALY":"2.7511","CLASSIFICATION_TYPE":"U","INCLINATION":"42.9975","TLE_LINE2":"2 55703  42.9975 283.0745 0012307 312.7358   2.7511 15.78903292 10440","REF_FRAME":"TEME","PERIAPSIS":"325.289","SEMIMAJOR_AXIS":"6711.684","MEAN_MOTION":"15.78903292","SITE":"AFETR","TLE_LINE1":"1 55703U 23026J   23118.91667824  .00274088  00000-0  14514-2 0  9997","ARG_OF_PERICENTER":"312.7358","OBJECT_ID":"2023-026J","EPOCH":"2023-04-28T22:00:00.999936","OBJECT_TYPE":"PAYLOAD","NORAD_CAT_ID":"55703","MEAN_ELEMENT_THEORY":"SGP4","RCS_SIZE":"LARGE","EPHEMERIS_TYPE":"0","REV_AT_EPOCH":"1044","ELEMENT_SET_NO":"999","PERIOD":"91.203","MEAN_MOTION_DOT":"0.00274088","FILE":"3896001","CENTER_NAME":"EARTH","RA_OF_ASC_NODE":"283.0745","OBJECT_NAME":"STARLINK-30044","LAUNCH_DATE":"2023-02-27","COUNTRY_CODE":"US","ECCENTRICITY":"0.00123070","MEAN_MOTION_DDOT":"0.0000000000000"},{"COUNTRY_CODE":"US","MEAN_MOTION_DDOT":"0.0000000000000","ECCENTRICITY":"0.00021680","RA_OF_ASC_NODE":"290.4720","CENTER_NAME":"EARTH","FILE":"3896001","MEAN_MOTION_DOT":"-0.00003426","LAUNCH_DATE":"2023-02-27","OBJECT_NAME":"STARLINK-30051","ELEMENT_SET_NO":"999","REV_AT_EPOCH":"1035","EPHEMERIS_TYPE":"0","PERIOD":"94.164","NORAD_CAT_ID":"55704","OBJECT_TYPE":"PAYLOAD","EPOCH":"2023-04-28T20:37:56.872128","RCS_SIZE":"LARGE","MEAN_ELEMENT_THEORY":"SGP4","SITE":"AFETR","OBJECT_ID":"2023-026K","TLE_LINE1":"1 55704U 23026K   23118.85968602 -.00003426  00000-0 -10910-3 0  9994","ARG_OF_PERICENTER":"272.6876","PERIAPSIS":"476.564","TLE_LINE2":"2 55704  43.0015 290.4720 0002168 272.6876  87.3729 15.29251554 10359","REF_FRAME":"TEME","INCLINATION":"43.0015","CLASSIFICATION_TYPE":"U","MEAN_MOTION":"15.29251554","SEMIMAJOR_AXIS":"6856.185","GP_ID":"230895435","MEAN_ANOMALY":"87.3729","TIME_SYSTEM":"UTC","APOAPSIS":"479.537","DECAY_DATE":null,"BSTAR":"-0.00010910000000"},{"OBJECT_ID":"2023-026L","TLE_LINE1":"1 55705U 23026L   23118.76550713  .00000237  00000-0  52549-5 0  9996","ARG_OF_PERICENTER":"258.3408","SITE":"AFETR","MEAN_MOTION":"15.71347989","SEMIMAJOR_AXIS":"6733.181","INCLINATION":"42.9996","TLE_LINE2":"2 55705  42.9996 284.4361 0001749 258.3408 101.7263 15.71347989 10412","REF_FRAME":"TEME","PERIAPSIS":"353.868","CLASSIFICATION_TYPE":"U","MEAN_ANOMALY":"101.7263","GP_ID":"230890128","BSTAR":"0.00000525490000","TIME_SYSTEM":"UTC","DECAY_DATE":null,"APOAPSIS":"356.223","MEAN_MOTION_DDOT":"0.0000000000000","ECCENTRICITY":"0.00017490","COUNTRY_CODE":"US","OBJECT_NAME":"STARLINK-30057","LAUNCH_DATE":"2023-02-27","CENTER_NAME":"EARTH","RA_OF_ASC_NODE":"284.4361","FILE":"3895783","MEAN_MOTION_DOT":"0.00000237","PERIOD":"91.641","REV_AT_EPOCH":"1041","ELEMENT_SET_NO":"999","EPHEMERIS_TYPE":"0","RCS_SIZE":"LARGE","MEAN_ELEMENT_THEORY":"SGP4","NORAD_CAT_ID":"55705","EPOCH":"2023-04-28T18:22:19.816032","OBJECT_TYPE":"PAYLOAD"},{"OBJECT_ID":"2023-026N","TLE_LINE1":"1 55707U 23026N   23118.76580880 -.00004312  00000-0 -29460-4 0  9991","ARG_OF_PERICENTER":"241.6177","SITE":"AFETR","MEAN_MOTION":"15.71345782","SEMIMAJOR_AXIS":"6733.187","INCLINATION":"43.0022","TLE_LINE2":"2 55707  43.0022 284.4450 0001961 241.6177 118.4493 15.71345782 10418","REF_FRAME":"TEME","PERIAPSIS":"353.731","CLASSIFICATION_TYPE":"U","MEAN_ANOMALY":"118.4493","GP_ID":"230895292","BSTAR":"-0.00002946000000","TIME_SYSTEM":"UTC","DECAY_DATE":null,"APOAPSIS":"356.372","MEAN_MOTION_DDOT":"0.0000000000000","ECCENTRICITY":"0.00019610","COUNTRY_CODE":"US","OBJECT_NAME":"STARLINK-30060","LAUNCH_DATE":"2023-02-27","CENTER_NAME":"EARTH","RA_OF_ASC_NODE":"284.4450","MEAN_MOTION_DOT":"-0.00004312","FILE":"3896001","PERIOD":"91.641","REV_AT_EPOCH":"1041","ELEMENT_SET_NO":"999","EPHEMERIS_TYPE":"0","RCS_SIZE":"LARGE","MEAN_ELEMENT_THEORY":"SGP4","NORAD_CAT_ID":"55707","EPOCH":"2023-04-28T18:22:45.880320","OBJECT_TYPE":"PAYLOAD"},{"MEAN_ELEMENT_THEORY":"SGP4","RCS_SIZE":"LARGE","OBJECT_TYPE":"PAYLOAD","EPOCH":"2023-04-28T20:27:40.601664","NORAD_CAT_ID":"55708","PERIOD":"94.164","EPHEMERIS_TYPE":"0","ELEMENT_SET_NO":"999","REV_AT_EPOCH":"1036","LAUNCH_DATE":"2023-02-27","OBJECT_NAME":"STARLINK-30058","MEAN_MOTION_DOT":"-0.00000471","FILE":"3896001","RA_OF_ASC_NODE":"290.4186","CENTER_NAME":"EARTH","ECCENTRICITY":"0.00022030","MEAN_MOTION_DDOT":"0.0000000000000","COUNTRY_CODE":"US","BSTAR":"-0.00000702160000","DECAY_DATE":null,"APOAPSIS":"479.568","TIME_SYSTEM":"UTC","MEAN_ANOMALY":"77.1320","GP_ID":"230895285","SEMIMAJOR_AXIS":"6856.193","MEAN_MOTION":"15.29249028","CLASSIFICATION_TYPE":"U","PERIAPSIS":"476.548","TLE_LINE2":"2 55708  43.0014 290.4186 0002203 282.9286  77.1320 15.29249028 10365","REF_FRAME":"TEME","INCLINATION":"43.0014","ARG_OF_PERICENTER":"282.9286","TLE_LINE1":"1 55708U 23026P   23118.85255326 -.00000471  00000-0 -70216-5 0  9994","OBJECT_ID":"2023-026P","SITE":"AFETR"}];
